STARLINK-32617          
1 62076U 24217V   26050.99446400  .00013485  00000+0  46674-3 0  9996
2 62076  53.1587 263.1978 0001359  93.4271 266.6885 15.30189132 70890
STARLINK-11384 [DTC]    
1 62088U 24220A   26050.66191351  .00194812  00000+0  14810-2 0  9999
2 62088  43.0003 152.1180 0001599 273.4703  86.5982 15.70927375 72210
STARLINK-11379 [DTC]    
1 62089U 24220B   26051.00001157 -.00142438  00000+0 -11220-2 0  9994
2 62089  43.0006 150.0050 0001557 264.6922 239.6289 15.70915626  5893
STARLINK-11387 [DTC]    
1 62090U 24220C   26051.28713677  .00233934  00000+0  17655-2 0  9991
2 62090  42.9997 148.2005 0001764 254.6744 105.3929 15.70978570 72310
STARLINK-11389 [DTC]    
1 62091U 24220D   26051.28182164  .00033477  00000+0  26295-3 0  9994
2 62091  43.0005 148.1562 0001583 287.5550  72.5144 15.70875246 72218
STARLINK-11388 [DTC]    
1 62092U 24220E   26050.64068410  .00105579  00000+0  81460-3 0  9999
2 62092  42.9997 151.9462 0001531 268.1899  91.8794 15.70877203 72111
STARLINK-11345 [DTC]    
1 62093U 24220F   26050.63538020  .00201352  00000+0  15334-2 0  9990
2 62093  42.9996 151.9039 0002056 311.0377  49.0312 15.70863283 72117
STARLINK-11381 [DTC]    
1 62094U 24220G   26051.26589573  .00165085  00000+0  12601-2 0  9996
2 62094  43.0009 148.0305 0003157 283.3580  76.6936 15.70922227 72211
STARLINK-11369 [DTC]    
1 62095U 24220H   26051.26059090  .00247341  00000+0  18719-2 0  9995
2 62095  42.9990 147.9859 0000649 252.4119 107.6678 15.70869323 72315
STARLINK-11303 [DTC]    
1 62096U 24220J   26050.68303430  .00199984  00000+0  15224-2 0  9998
2 62096  43.0046 151.3935 0002951 282.6423  77.4115 15.70875734 72228
STARLINK-11367 [DTC]    
1 62097U 24220K   26050.74130857  .00192693  00000+0  14674-2 0  9995
2 62097  43.0004 150.9697 0002073 299.2115  60.8545 15.70892576 72237
STARLINK-11386 [DTC]    
1 62098U 24220L   26051.30824219  .00267429  00000+0  20075-2 0  9993
2 62098  42.9996 147.4756 0001762 265.6227  94.4439 15.71002648 72226
STARLINK-11380 [DTC]    
1 62099U 24220M   26051.30293462  .00253039  00000+0  19025-2 0  9999
2 62099  42.9993 147.4313 0001698 240.7590 119.3108 15.71008935 72223
STARLINK-33566          
1 62100U 24220N   26051.05329379  .00020650  00000+0  75735-3 0  9993
2 62100  43.0098 290.4290 0002834 246.6767 113.3787 15.27600005 70661
STARLINK-33545          
1 62101U 24220P   26051.09762395  .00020919  00000+0  76718-3 0  9997
2 62101  43.0045 304.6480 0002462 285.5732  74.4848 15.27595354 70333
STARLINK-33562          
1 62102U 24220Q   26051.04380222  .00021843  00000+0  80057-3 0  9996
2 62102  43.0027 305.1024 0002197 253.0478 107.0133 15.27594686 70322
