[{"OBJECT_NAME":"STARLINK-32617","OBJECT_ID":"2024-217V","EPOCH":"2026-02-19T23:52:01.689600","MEAN_MOTION":15.30189132,"ECCENTRICITY":0.00013594,"INCLINATION":53.1587,"RA_OF_ASC_NODE":263.1978,"ARG_OF_PERICENTER":93.4271,"MEAN_ANOMALY":266.6885,"EPHEMERIS_TYPE":0,"CLASSIFICATION_TYPE":"U","NORAD_CAT_ID":62076,"ELEMENT_SET_NO":999,"REV_AT_EPOCH":7089,"BSTAR":0.00046674038,"MEAN_MOTION_DOT":0.00013485,"MEAN_MOTION_DDOT":0},{"OBJECT_NAME":"STARLINK-11384 [DTC]","OBJECT_ID":"2024-220A","EPOCH":"2026-02-19T15:53:09.327264","MEAN_MOTION":15.70927375,"ECCENTRICITY":0.0001599,"INCLINATION":43.0003,"RA_OF_ASC_NODE":152.118,"ARG_OF_PERICENTER":273.4703,"MEAN_ANOMALY":86.5982,"EPHEMERIS_TYPE":0,"CLASSIFICATION_TYPE":"U","NORAD_CAT_ID":62088,"ELEMENT_SET_NO":999,"REV_AT_EPOCH":7221,"BSTAR":0.0014809587,"MEAN_MOTION_DOT":0.00194812,"MEAN_MOTION_DDOT":0},{"OBJECT_NAME":"STARLINK-11379 [DTC]","OBJECT_ID":"2024-220B","EPOCH":"2026-02-20T00:00:00.999648","MEAN_MOTION":15.70915626,"ECCENTRICITY":0.00015572,"INCLINATION":43.0006,"RA_OF_ASC_NODE":150.005,"ARG_OF_PERICENTER":264.6922,"MEAN_ANOMALY":239.6289,"EPHEMERIS_TYPE":0,"CLASSIFICATION_TYPE":"U","NORAD_CAT_ID":62089,"ELEMENT_SET_NO":999,"REV_AT_EPOCH":589,"BSTAR":-0.0011220389,"MEAN_MOTION_DOT":-0.00142438,"MEAN_MOTION_DDOT":0},{"OBJECT_NAME":"STARLINK-11387 [DTC]","OBJECT_ID":"2024-220C","EPOCH":"2026-02-20T06:53:28.616928","MEAN_MOTION":15.7097857,"ECCENTRICITY":0.00017645,"INCLINATION":42.9997,"RA_OF_ASC_NODE":148.2005,"ARG_OF_PERICENTER":254.6744,"MEAN_ANOMALY":105.3929,"EPHEMERIS_TYPE":0,"CLASSIFICATION_TYPE":"U","NORAD_CAT_ID":62090,"ELEMENT_SET_NO":999,"REV_AT_EPOCH":7231,"BSTAR":0.0017654617,"MEAN_MOTION_DOT":0.00233934,"MEAN_MOTION_DDOT":0},{"OBJECT_NAME":"STARLINK-11389 [DTC]","OBJECT_ID":"2024-220D","EPOCH":"2026-02-20T06:45:49.389696","MEAN_MOTION":15.70875246,"ECCENTRICITY":0.00015832,"INCLINATION":43.0005,"RA_OF_ASC_NODE":148.1562,"ARG_OF_PERICENTER":287.555,"MEAN_ANOMALY":72.5144,"EPHEMERIS_TYPE":0,"CLASSIFICATION_TYPE":"U","NORAD_CAT_ID":62091,"ELEMENT_SET_NO":999,"REV_AT_EPOCH":7221,"BSTAR":0.00026294896,"MEAN_MOTION_DOT":0.00033477,"MEAN_MOTION_DDOT":0},{"OBJECT_NAME":"STARLINK-11388 [DTC]","OBJECT_ID":"2024-220E","EPOCH":"2026-02-19T15:22:35.106240","MEAN_MOTION":15.70877203,"ECCENTRICITY":0.0001531,"INCLINATION":42.9997,"RA_OF_ASC_NODE":151.9462,"ARG_OF_PERICENTER":268.1899,"MEAN_ANOMALY":91.8794,"EPHEMERIS_TYPE":0,"CLASSIFICATION_TYPE":"U","NORAD_CAT_ID":62092,"ELEMENT_SET_NO":999,"REV_AT_EPOCH":7211,"BSTAR":0.0008146,"MEAN_MOTION_DOT":0.00105579,"MEAN_MOTION_DDOT":0},{"OBJECT_NAME":"STARLINK-11345 [DTC]","OBJECT_ID":"2024-220F","EPOCH":"2026-02-19T15:14:56.849280","MEAN_MOTION":15.70863283,"ECCENTRICITY":0.0002056,"INCLINATION":42.9996,"RA_OF_ASC_NODE":151.9039,"ARG_OF_PERICENTER":311.0377,"MEAN_ANOMALY":49.0312,"EPHEMERIS_TYPE":0,"CLASSIFICATION_TYPE":"U","NORAD_CAT_ID":62093,"ELEMENT_SET_NO":999,"REV_AT_EPOCH":7211,"BSTAR":0.0015334,"MEAN_MOTION_DOT":0.00201352,"MEAN_MOTION_DDOT":0},{"OBJECT_NAME":"STARLINK-11381 [DTC]","OBJECT_ID":"2024-220G","EPOCH":"2026-02-20T06:22:53.391072","MEAN_MOTION":15.70922227,"ECCENTRICITY":0.00031574,"INCLINATION":43.0009,"RA_OF_ASC_NODE":148.0305,"ARG_OF_PERICENTER":283.358,"MEAN_ANOMALY":76.6936,"EPHEMERIS_TYPE":0,"CLASSIFICATION_TYPE":"U","NORAD_CAT_ID":62094,"ELEMENT_SET_NO":999,"REV_AT_EPOCH":7221,"BSTAR":0.0012601314,"MEAN_MOTION_DOT":0.00165085,"MEAN_MOTION_DDOT":0},{"OBJECT_NAME":"STARLINK-11369 [DTC]","OBJECT_ID":"2024-220H","EPOCH":"2026-02-20T06:15:15.053760","MEAN_MOTION":15.70869323,"ECCENTRICITY":6.491e-5,"INCLINATION":42.999,"RA_OF_ASC_NODE":147.9859,"ARG_OF_PERICENTER":252.4119,"MEAN_ANOMALY":107.6678,"EPHEMERIS_TYPE":0,"CLASSIFICATION_TYPE":"U","NORAD_CAT_ID":62095,"ELEMENT_SET_NO":999,"REV_AT_EPOCH":7231,"BSTAR":0.0018719372,"MEAN_MOTION_DOT":0.00247341,"MEAN_MOTION_DDOT":0},{"OBJECT_NAME":"STARLINK-11303 [DTC]","OBJECT_ID":"2024-220J","EPOCH":"2026-02-19T16:23:34.163520","MEAN_MOTION":15.70875734,"ECCENTRICITY":0.00029514,"INCLINATION":43.0046,"RA_OF_ASC_NODE":151.3935,"ARG_OF_PERICENTER":282.6423,"MEAN_ANOMALY":77.4115,"EPHEMERIS_TYPE":0,"CLASSIFICATION_TYPE":"U","NORAD_CAT_ID":62096,"ELEMENT_SET_NO":999,"REV_AT_EPOCH":7222,"BSTAR":0.0015224033,"MEAN_MOTION_DOT":0.00199984,"MEAN_MOTION_DDOT":0},{"OBJECT_NAME":"STARLINK-11367 [DTC]","OBJECT_ID":"2024-220K","EPOCH":"2026-02-19T17:47:29.060448","MEAN_MOTION":15.70892576,"ECCENTRICITY":0.00020734,"INCLINATION":43.0004,"RA_OF_ASC_NODE":150.9697,"ARG_OF_PERICENTER":299.2115,"MEAN_ANOMALY":60.8545,"EPHEMERIS_TYPE":0,"CLASSIFICATION_TYPE":"U","NORAD_CAT_ID":62097,"ELEMENT_SET_NO":999,"REV_AT_EPOCH":7223,"BSTAR":0.0014673713,"MEAN_MOTION_DOT":0.00192693,"MEAN_MOTION_DDOT":0},{"OBJECT_NAME":"STARLINK-11386 [DTC]","OBJECT_ID":"2024-220L","EPOCH":"2026-02-20T07:23:52.125216","MEAN_MOTION":15.71002648,"ECCENTRICITY":0.00017622,"INCLINATION":42.9996,"RA_OF_ASC_NODE":147.4756,"ARG_OF_PERICENTER":265.6227,"MEAN_ANOMALY":94.4439,"EPHEMERIS_TYPE":0,"CLASSIFICATION_TYPE":"U","NORAD_CAT_ID":62098,"ELEMENT_SET_NO":999,"REV_AT_EPOCH":7222,"BSTAR":0.002007546,"MEAN_MOTION_DOT":0.00267429,"MEAN_MOTION_DDOT":0},{"OBJECT_NAME":"STARLINK-11380 [DTC]","OBJECT_ID":"2024-220M","EPOCH":"2026-02-20T07:16:13.551168","MEAN_MOTION":15.71008935,"ECCENTRICITY":0.00016986,"INCLINATION":42.9993,"RA_OF_ASC_NODE":147.4313,"ARG_OF_PERICENTER":240.759,"MEAN_ANOMALY":119.3108,"EPHEMERIS_TYPE":0,"CLASSIFICATION_TYPE":"U","NORAD_CAT_ID":62099,"ELEMENT_SET_NO":999,"REV_AT_EPOCH":7222,"BSTAR":0.001902526,"MEAN_MOTION_DOT":0.00253039,"MEAN_MOTION_DDOT":0},{"OBJECT_NAME":"STARLINK-33566","OBJECT_ID":"2024-220N","EPOCH":"2026-02-20T01:16:44.583456","MEAN_MOTION":15.27600005,"ECCENTRICITY":0.00028343,"INCLINATION":43.0098,"RA_OF_ASC_NODE":290.429,"ARG_OF_PERICENTER":246.6767,"MEAN_ANOMALY":113.3787,"EPHEMERIS_TYPE":0,"CLASSIFICATION_TYPE":"U","NORAD_CAT_ID":62100,"ELEMENT_SET_NO":999,"REV_AT_EPOCH":7066,"BSTAR":0.00075735099,"MEAN_MOTION_DOT":0.0002065,"MEAN_MOTION_DDOT":0},{"OBJECT_NAME":"STARLINK-33545","OBJECT_ID":"2024-220P","EPOCH":"2026-02-20T02:20:34.709280","MEAN_MOTION":15.27595354,"ECCENTRICITY":0.00024625,"INCLINATION":43.0045,"RA_OF_ASC_NODE":304.648,"ARG_OF_PERICENTER":285.5732,"MEAN_ANOMALY":74.4848,"EPHEMERIS_TYPE":0,"CLASSIFICATION_TYPE":"U","NORAD_CAT_ID":62101,"ELEMENT_SET_NO":999,"REV_AT_EPOCH":7033,"BSTAR":0.0007671782,"MEAN_MOTION_DOT":0.00020919,"MEAN_MOTION_DDOT":0},{"OBJECT_NAME":"STARLINK-33562","OBJECT_ID":"2024-220Q","EPOCH":"2026-02-20T01:03:04.511808","MEAN_MOTION":15.27594686,"ECCENTRICITY":0.00021973,"INCLINATION":43.0027,"RA_OF_ASC_NODE":305.1024,"ARG_OF_PERICENTER":253.0478,"MEAN_ANOMALY":107.0133,"EPHEMERIS_TYPE":0,"CLASSIFICATION_TYPE":"U","NORAD_CAT_ID":62102,"ELEMENT_SET_NO":999,"REV_AT_EPOCH":7032,"BSTAR":0.0008005688,"MEAN_MOTION_DOT":0.00021843,"MEAN_MOTION_DDOT":0}]
